{"type": "FeatureCollection", "features": [ {"type": "Feature", "properties": {"norad_id": 66530, "name": "STARLINK-35961", "group": "last-30-days", "lat": -42.61006151004935, "lon": 23.47860094350925, "alt_km": 347.48033437837876, "timestamp": "2025-12-04T05:42:42.158572+00:00", "meta": {"OBJECT_NAME": "STARLINK-35961", "OBJECT_ID": "2025-265Q", "EPOCH": "2025-12-03T22:00:03.000096", "MEAN_MOTION": 15.75394675, "ECCENTRICITY": 0.00015428, "INCLINATION": 42.9997, "RA_OF_ASC_NODE": 106.2413, "ARG_OF_PERICENTER": 270.3176, "MEAN_ANOMALY": 342.4214, "EPHEMERIS_TYPE": 0, "CLASSIFICATION_TYPE": "U", "NORAD_CAT_ID": 66530, "ELEMENT_SET_NO": 999, "REV_AT_EPOCH": 357, "BSTAR": -0.0063070177, "MEAN_MOTION_DOT": -0.00886923, "MEAN_MOTION_DDOT": 0}, "tle": {"line1": "1 66530U 25265Q   25337.91670139 -.00886923  00000+0 -63070-2 0  9991", "line2": "2 66530  42.9997 106.2413 0001542 270.3176 342.4214 15.75394675  3574"}}, "geometry": {"type": "Point", "coordinates": [23.47860094350925, -42.61006151004935]}}, {"type": "Feature", "properties": {"norad_id": 66531, "name": "STARLINK-35960", "group": "last-30-days", "lat": -42.37837718512795, "lon": 25.995615664098818, "alt_km": 347.1671280551336, "timestamp": "2025-12-04T05:42:42.158582+00:00", "meta": {"OBJECT_NAME": "STARLINK-35960", "OBJECT_ID": "2025-265R", "EPOCH": "2025-12-03T22:00:03.000096", "MEAN_MOTION": 15.75306745, "ECCENTRICITY": 0.00019883, "INCLINATION": 42.9997, "RA_OF_ASC_NODE": 106.2362, "ARG_OF_PERICENTER": 260.0866, "MEAN_ANOMALY": 354.5586, "EPHEMERIS_TYPE": 0, "CLASSIFICATION_TYPE": "U", "NORAD_CAT_ID": 66531, "ELEMENT_SET_NO": 999, "REV_AT_EPOCH": 357, "BSTAR": -0.0051505878, "MEAN_MOTION_DOT": -0.00734959, "MEAN_MOTION_DDOT": 0}, "tle": {"line1": "1 66531U 25265R   25337.91670139 -.00734959  00000+0 -51506-2 0  9994", "line2": "2 66531  42.9997 106.2362 0001988 260.0866 354.5586 15.75306745  3571"}}, "geometry": {"type": "Point", "coordinates": [25.995615664098818, -42.37837718512795]}}, {"type": "Feature", "properties": {"norad_id": 66532, "name": "STARLINK-35914", "group": "last-30-days", "lat": -42.076962160850336, "lon": 28.608405064226112, "alt_km": 347.2887293149961, "timestamp": "2025-12-04T05:42:42.158592+00:00", "meta": {"OBJECT_NAME": "STARLINK-35914", "OBJECT_ID": "2025-265S", "EPOCH": "2025-12-03T22:00:03.000096", "MEAN_MOTION": 15.75398667, "ECCENTRICITY": 0.00018673, "INCLINATION": 42.9995, "RA_OF_ASC_NODE": 106.2316, "ARG_OF_PERICENTER": 261.446, "MEAN_ANOMALY": 355.1253, "EPHEMERIS_TYPE": 0, "CLASSIFICATION_TYPE": "U", "NORAD_CAT_ID": 66532, "ELEMENT_SET_NO": 999, "REV_AT_EPOCH": 357, "BSTAR": -0.0063215576, "MEAN_MOTION_DOT": -0.00889022, "MEAN_MOTION_DDOT": 0}, "tle": {"line1": "1 66532U 25265S   25337.91670139 -.00889022  00000+0 -63216-2 0  9998", "line2": "2 66532  42.9995 106.2316 0001867 261.4460 355.1253 15.75398667  3572"}}, "geometry": {"type": "Point", "coordinates": [28.608405064226112, -42.076962160850336]}}, {"type": "Feature", "properties": {"norad_id": 66533, "name": "STARLINK-35707", "group": "last-30-days", "lat": -41.72811383956585, "lon": 31.12016848709028, "alt_km": 347.2775615414703, "timestamp": "2025-12-04T05:42:42.158602+00:00", "meta": {"OBJECT_NAME": "STARLINK-35707", "OBJECT_ID": "2025-265T", "EPOCH": "2025-12-03T22:00:03.000096", "MEAN_MOTION": 15.75370195, "ECCENTRICITY": 0.00017952, "INCLINATION": 42.9996, "RA_OF_ASC_NODE": 106.2269, "ARG_OF_PERICENTER": 277.3649, "MEAN_ANOMALY": 341.1386, "EPHEMERIS_TYPE": 0, "CLASSIFICATION_TYPE": "U", "NORAD_CAT_ID": 66533, "ELEMENT_SET_NO": 999, "REV_AT_EPOCH": 357, "BSTAR": -0.0060699941, "MEAN_MOTION_DOT": -0.00855975, "MEAN_MOTION_DDOT": 0}, "tle": {"line1": "1 66533U 25265T   25337.91670139 -.00855975  00000+0 -60700-2 0  9994", "line2": "2 66533  42.9996 106.2269 0001795 277.3649 341.1386 15.75370195  3574"}}, "geometry": {"type": "Point", "coordinates": [31.12016848709028, -41.72811383956585]}}, {"type": "Feature", "properties": {"norad_id": 66534, "name": "STARLINK-35976", "group": "last-30-days", "lat": -41.31955171516182, "lon": 33.63521791908904, "alt_km": 347.0839355528133, "timestamp": "2025-12-04T05:42:42.158612+00:00", "meta": {"OBJECT_NAME": "STARLINK-35976", "OBJECT_ID": "2025-265U", "EPOCH": "2025-12-03T22:00:03.000096", "MEAN_MOTION": 15.75409706, "ECCENTRICITY": 0.00020481, "INCLINATION": 42.9999, "RA_OF_ASC_NODE": 106.2225, "ARG_OF_PERICENTER": 271.4597, "MEAN_ANOMALY": 348.9457, "EPHEMERIS_TYPE": 0, "CLASSIFICATION_TYPE": "U", "NORAD_CAT_ID": 66534, "ELEMENT_SET_NO": 999, "REV_AT_EPOCH": 357, "BSTAR": -0.0063807198, "MEAN_MOTION_DOT": -0.00896983, "MEAN_MOTION_DDOT": 0}, "tle": {"line1": "1 66534U 25265U   25337.91670139 -.00896983  00000+0 -63807-2 0  9990", "line2": "2 66534  42.9999 106.2225 0002048 271.4597 348.9457 15.75409706  3574"}}, "geometry": {"type": "Point", "coordinates": [33.63521791908904, -41.31955171516182]}}, {"type": "Feature", "properties": {"norad_id": 66535, "name": "STARLINK-35514", "group": "last-30-days", "lat": -40.8612811621739, "lon": 36.092167369994456, "alt_km": 347.1270074052991, "timestamp": "2025-12-04T05:42:42.158624+00:00", "meta": {"OBJECT_NAME": "STARLINK-35514", "OBJECT_ID": "2025-265V", "EPOCH": "2025-12-03T22:00:03.000096", "MEAN_MOTION": 15.75412628, "ECCENTRICITY": 0.00019344, "INCLINATION": 42.9999, "RA_OF_ASC_NODE": 106.2177, "ARG_OF_PERICENTER": 276.428, "MEAN_ANOMALY": 345.8911, "EPHEMERIS_TYPE": 0, "CLASSIFICATION_TYPE": "U", "NORAD_CAT_ID": 66535, "ELEMENT_SET_NO": 999, "REV_AT_EPOCH": 357, "BSTAR": -0.0064057162, "MEAN_MOTION_DOT": -0.00900211, "MEAN_MOTION_DDOT": 0}, "tle": {"line1": "1 66535U 25265V   25337.91670139 -.00900211  00000+0 -64057-2 0  9999", "line2": "2 66535  42.9999 106.2177 0001934 276.4280 345.8911 15.75412628  3576"}}, "geometry": {"type": "Point", "coordinates": [36.092167369994456, -40.8612811621739]}}, {"type": "Feature", "properties": {"norad_id": 66536, "name": "STARLINK-35640", "group": "last-30-days", "lat": -40.35417143077302, "lon": 38.50065616852046, "alt_km": 347.40573005746046, "timestamp": "2025-12-04T05:42:42.158634+00:00", "meta": {"OBJECT_NAME": "STARLINK-35640", "OBJECT_ID": "2025-265W", "EPOCH": "2025-12-03T22:00:03.000096", "MEAN_MOTION": 15.75373404, "ECCENTRICITY": 0.00015278, "INCLINATION": 42.9998, "RA_OF_ASC_NODE": 106.2129, "ARG_OF_PERICENTER": 276.5691, "MEAN_ANOMALY": 347.6795, "EPHEMERIS_TYPE": 0, "CLASSIFICATION_TYPE": "U", "NORAD_CAT_ID": 66536, "ELEMENT_SET_NO": 999, "REV_AT_EPOCH": 355, "BSTAR": -0.0060683927, "MEAN_MOTION_DOT": -0.00855794, "MEAN_MOTION_DDOT": 0}, "tle": {"line1": "1 66536U 25265W   25337.91670139 -.00855794  00000+0 -60684-2 0  9997", "line2": "2 66536  42.9998 106.2129 0001527 276.5691 347.6795 15.75373404  3554"}}, "geometry": {"type": "Point", "coordinates": [38.50065616852046, -40.35417143077302]}}, {"type": "Feature", "properties": {"norad_id": 66537, "name": "STARLINK-35582", "group": "last-30-days", "lat": -39.802204761660036, "lon": 40.854539590384604, "alt_km": 347.22921608723027, "timestamp": "2025-12-04T05:42:42.158646+00:00", "meta": {"OBJECT_NAME": "STARLINK-35582", "OBJECT_ID": "2025-265X", "EPOCH": "2025-12-03T22:00:03.000096", "MEAN_MOTION": 15.75314122, "ECCENTRICITY": 0.00016801, "INCLINATION": 43.0001, "RA_OF_ASC_NODE": 106.208, "ARG_OF_PERICENTER": 283.9953, "MEAN_ANOMALY": 342.1692, "EPHEMERIS_TYPE": 0, "CLASSIFICATION_TYPE": "U", "NORAD_CAT_ID": 66537, "ELEMENT_SET_NO": 999, "REV_AT_EPOCH": 357, "BSTAR": -0.0052968896, "MEAN_MOTION_DOT": -0.00754251, "MEAN_MOTION_DDOT": 0}, "tle": {"line1": "1 66537U 25265X   25337.91670139 -.00754251  00000+0 -52969-2 0  9991", "line2": "2 66537  43.0001 106.2080 0001680 283.9953 342.1692 15.75314122  3571"}}, "geometry": {"type": "Point", "coordinates": [40.854539590384604, -39.802204761660036]}}, {"type": "Feature", "properties": {"norad_id": 66538, "name": "STARLINK-35577", "group": "last-30-days", "lat": -39.17563864674561, "lon": 43.269338975494, "alt_km": 347.4416725578212, "timestamp": "2025-12-04T05:42:42.158656+00:00", "meta": {"OBJECT_NAME": "STARLINK-35577", "OBJECT_ID": "2025-265Y", "EPOCH": "2025-12-03T22:00:03.000096", "MEAN_MOTION": 15.75248258, "ECCENTRICITY": 0.00017413, "INCLINATION": 43, "RA_OF_ASC_NODE": 106.2026, "ARG_OF_PERICENTER": 266.0055, "MEAN_ANOMALY": 2.1982, "EPHEMERIS_TYPE": 0, "CLASSIFICATION_TYPE": "U", "NORAD_CAT_ID": 66538, "ELEMENT_SET_NO": 999, "REV_AT_EPOCH": 357, "BSTAR": -0.0052678755, "MEAN_MOTION_DOT": -0.00748477, "MEAN_MOTION_DDOT": 0}, "tle": {"line1": "1 66538U 25265Y   25337.91670139 -.00748477  00000+0 -52679-2 0  9993", "line2": "2 66538  43.0000 106.2026 0001741 266.0055   2.1982 15.75248258  3575"}}, "geometry": {"type": "Point", "coordinates": [43.269338975494, -39.17563864674561]}}, {"type": "Feature", "properties": {"norad_id": 66539, "name": "STARLINK-35697", "group": "last-30-days", "lat": -38.54275801503183, "lon": 45.49617226680935, "alt_km": 347.24701134772477, "timestamp": "2025-12-04T05:42:42.158666+00:00", "meta": {"OBJECT_NAME": "STARLINK-35697", "OBJECT_ID": "2025-265Z", "EPOCH": "2025-12-03T22:00:03.000096", "MEAN_MOTION": 15.75308569, "ECCENTRICITY": 0.00017233, "INCLINATION": 43.0001, "RA_OF_ASC_NODE": 106.1978, "ARG_OF_PERICENTER": 265.4843, "MEAN_ANOMALY": 4.4951, "EPHEMERIS_TYPE": 0, "CLASSIFICATION_TYPE": "U", "NORAD_CAT_ID": 66539, "ELEMENT_SET_NO": 999, "REV_AT_EPOCH": 357, "BSTAR": -0.0051512286, "MEAN_MOTION_DOT": -0.00735028, "MEAN_MOTION_DDOT": 0}, "tle": {"line1": "1 66539U 25265Z   25337.91670139 -.00735028  00000+0 -51512-2 0  9997", "line2": "2 66539  43.0001 106.1978 0001723 265.4843   4.4951 15.75308569  3573"}}, "geometry": {"type": "Point", "coordinates": [45.49617226680935, -38.54275801503183]}}]}